{
  "norad_id": 66786,
  "name": "LEMUR-2-HOTSPUR-TOM",
  "history": [
    {
      "epoch": "2026-03-28T18:19:04.047456Z",
      "apogee_km": 583.8145266208094,
      "perigee_km": 562.1613553621246,
      "latitude_deg": -1.6303937422378813e-05,
      "longitude_deg": 60.25121692734807,
      "height_km": 569.1506259265356,
      "semi_major_axis_km": 6951.124940991467,
      "eccentricity": 0.00155753,
      "inclination_deg": 97.5312,
      "raan_deg": 161.1971,
      "arg_perigee_deg": 50.649,
      "mean_anomaly_deg": 309.611,
      "mean_motion_rev_day": 14.98028652
    },
    {
      "epoch": "2026-03-29T03:56:11.010912Z",
      "apogee_km": 583.7617169484383,
      "perigee_km": 562.1593740404533,
      "latitude_deg": 6.8560990424592e-05,
      "longitude_deg": -84.03613054489088,
      "height_km": 568.9411169603046,
      "semi_major_axis_km": 6951.0975454944455,
      "eccentricity": 0.00155388,
      "inclination_deg": 97.5312,
      "raan_deg": 161.5838,
      "arg_perigee_deg": 49.27,
      "mean_anomaly_deg": 310.987,
      "mean_motion_rev_day": 14.98037508
    }
  ]
}